[{"OBJECT_NAME":"STARLINK-31855","OBJECT_ID":"2024-097D","EPOCH":"2026-03-09T21:50:22.989120","MEAN_MOTION":15.27567018,"ECCENTRICITY":0.00022188,"INCLINATION":42.9949,"RA_OF_ASC_NODE":272.8375,"ARG_OF_PERICENTER":245.0971,"MEAN_ANOMALY":114.965,"EPHEMERIS_TYPE":0,"CLASSIFICATION_TYPE":"U","NORAD_CAT_ID":59838,"ELEMENT_SET_NO":999,"REV_AT_EPOCH":10195,"BSTAR":0.0010951857,"MEAN_MOTION_DOT":0.00029987,"MEAN_MOTION_DDOT":0},{"OBJECT_NAME":"OBJECT V","OBJECT_ID":"2025-155V","EPOCH":"2026-03-09T20:35:20.067360","MEAN_MOTION":15.27583301,"ECCENTRICITY":0.00080353,"INCLINATION":97.4485,"RA_OF_ASC_NODE":37.249,"ARG_OF_PERICENTER":152.8264,"MEAN_ANOMALY":207.3397,"EPHEMERIS_TYPE":0,"CLASSIFICATION_TYPE":"U","NORAD_CAT_ID":64895,"ELEMENT_SET_NO":999,"REV_AT_EPOCH":6557,"BSTAR":0.00051002361,"MEAN_MOTION_DOT":0.00013705,"MEAN_MOTION_DDOT":0}]
